OBJECT_NAME,OBJECT_ID,EPOCH,MEAN_MOTION,ECCENTRICITY,INCLINATION,RA_OF_ASC_NODE,ARG_OF_PERICENTER,MEAN_ANOMALY,EPHEMERIS_TYPE,CLASSIFICATION_TYPE,NORAD_CAT_ID,ELEMENT_SET_NO,REV_AT_EPOCH,BSTAR,MEAN_MOTION_DOT,MEAN_MOTION_DDOT
STARLINK-6107,2023-046AA,2024-07-08T01:13:14.777472,15.02532780,.0001525,43.0000,218.8318,282.1334,77.9337,0,U,56117,999,7104,.53551E-3,.7037E-4,0
STARLINK-6105,2023-046AB,2024-07-08T03:10:47.985312,15.02539859,.0001412,43.0012,230.6960,267.8467,92.2213,0,U,56118,999,7091,.17583E-3,.2173E-4,0
STARLINK-6091,2023-046AC,2024-07-07T09:30:21.068352,15.02533994,.0001226,43.0025,222.5117,273.9378,86.1325,0,U,56119,999,7094,.78191E-4,.853E-5,0
STARLINK-6079,2023-046AD,2024-07-07T11:17:15.141696,15.02536695,.000114,43.0021,222.2108,279.2597,80.8117,0,U,56120,999,7041,-.12042E-3,-.183E-4,0
STARLINK-6092,2023-046AE,2024-07-07T09:35:08.605824,15.02535337,.0001304,43.0027,222.5378,275.1010,84.9683,0,U,56121,999,7094,.41749E-4,.36E-5,0
STARLINK-6094,2023-046AF,2024-07-07T03:18:04.544640,15.02536289,.0001304,43.0027,236.1263,258.7836,101.2860,0,U,56122,999,7022,.17581E-4,.34E-6,0
STARLINK-6115,2023-046AH,2024-07-07T10:53:17.584800,15.02532835,.0001357,43.0027,222.0842,272.4732,87.5955,0,U,56123,999,7041,.59E-4,.593E-5,0
STARLINK-6126,2023-046AJ,2024-07-07T09:36:44.319744,15.02528135,.0001282,43.0026,222.5464,269.7032,90.3663,0,U,56124,999,7040,.10149E-3,.1167E-4,0
STARLINK-6119,2023-046AK,2024-07-07T12:33:48.582144,15.02534280,.0001217,43.0014,221.7473,274.6557,85.4147,0,U,56125,999,7042,-.25529E-4,-.548E-5,0
STARLINK-6124,2023-046AL,2024-07-07T09:12:46.088928,15.02529671,.000124,43.0030,222.4193,276.7189,83.3513,0,U,56126,999,7040,-.10861E-4,-.35E-5,0
STARLINK-6104,2023-046AM,2024-07-07T09:01:34.118112,15.02538682,.000105,43.0017,222.3600,266.1030,93.9692,0,U,56127,999,7040,.52626E-4,.507E-5,0
STARLINK-6122,2023-046AN,2024-07-07T11:01:16.763520,15.02539760,.0001145,43.0020,222.1247,261.2643,98.8070,0,U,56128,999,7041,-.62243E-4,-.1044E-4,0
STARLINK-6121,2023-046AP,2024-07-07T09:07:52.651200,15.02532421,.0001207,43.0030,170.4966,269.8818,90.1886,0,U,56129,999,7100,.22913E-4,.106E-5,0
STARLINK-6117,2023-046AQ,2024-07-07T10:43:41.521440,15.02539385,.0001107,43.0027,222.0325,272.9586,87.1130,0,U,56130,999,7041,.67921E-4,.714E-5,0
STARLINK-6120,2023-046AR,2024-07-07T08:47:11.643936,15.02528263,.0001328,43.0019,222.2850,272.6458,87.4232,0,U,56131,999,7040,.91554E-4,.1033E-4,0
STARLINK-6071,2023-046AS,2024-07-07T09:03:10.707264,15.02533769,.0001237,43.0023,222.3680,263.9124,96.1578,0,U,56132,999,7040,.22136E-4,.95E-6,0
STARLINK-5566,2023-046AT,2024-07-07T12:00:15.028416,15.02533759,.0001311,43.0024,221.5707,267.8084,92.2608,0,U,56133,999,7042,.53812E-4,.523E-5,0
STARLINK-5564,2023-046AU,2024-07-07T08:58:22.486368,15.02538242,.0001143,43.0023,222.3422,266.2266,93.8446,0,U,56134,999,7040,.30152E-4,.204E-5,0
STARLINK-5489,2023-046AW,2024-07-07T04:04:48.237600,15.02531460,.0001224,43.0018,223.3940,270.5456,89.5246,0,U,56136,999,7037,-.82468E-5,-.315E-5,0
STARLINK-5090,2023-046AX,2024-07-07T09:55:44.474016,15.02537817,.0001107,43.0021,221.7805,273.8486,86.2230,0,U,56137,999,7041,.4249E-4,.37E-5,0
STARLINK-4774,2023-046AY,2024-07-07T08:42:23.901696,15.02536635,.0001143,43.0023,222.2581,267.5290,92.5422,0,U,56138,999,7094,.19994E-4,.67E-6,0
STARLINK-5375,2023-046BA,2024-07-08T03:47:56.054688,15.02538774,.0001513,43.0038,217.9066,268.6278,91.4391,0,U,56140,999,7106,.11449E-3,.1343E-4,0
STARLINK-5377,2023-046BB,2024-07-07T11:29:52.454976,15.02536433,.0001045,43.0020,221.4103,270.7341,89.3382,0,U,56141,999,7042,.11839E-5,-.188E-5,0
STARLINK-5376,2023-046BC,2024-07-07T10:10:07.657536,15.02536899,.0001235,43.0018,221.8558,276.1591,83.9110,0,U,56142,999,7041,.55256E-4,.543E-5,0
STARLINK-5016,2023-046BD,2024-07-07T12:57:36.951264,15.02534570,.0001227,43.0024,221.0071,263.9195,96.1508,0,U,56143,999,7097,.49934E-4,.471E-5,0
STARLINK-5374,2023-046BE,2024-07-08T02:02:37.025664,15.02536255,.0001242,43.0038,218.2161,261.3580,98.7122,0,U,56144,999,7105,.759E-4,.822E-5,0
STARLINK-5111,2023-046BG,2024-07-07T13:00:48.879360,15.02532633,.0001161,43.0032,221.0225,264.7517,95.3192,0,U,56146,999,7097,.61431E-4,.626E-5,0
STARLINK-5140,2023-046BH,2024-07-08T01:11:08.404512,15.02528290,.0001271,43.0021,179.7322,276.9502,83.1196,0,U,56147,999,7149,-.99392E-5,-.338E-5,0
STARLINK-5089,2023-046BJ,2024-07-07T01:20:01.044960,15.02533350,.0001109,43.0018,185.1786,274.4206,85.6510,0,U,56148,999,7080,.40892E-6,-.198E-5,0
