STARLINK-6107           
1 56117U 23046AA  24190.05086548  .00007037  00000+0  53551-3 0  9995
2 56117  43.0000 218.8318 0001525 282.1334  77.9337 15.02532780 71047
STARLINK-6105           
1 56118U 23046AB  24190.13249983  .00002173  00000+0  17583-3 0  9990
2 56118  43.0012 230.6960 0001412 267.8467  92.2213 15.02539859 70910
STARLINK-6091           
1 56119U 23046AC  24189.39607718  .00000853  00000+0  78191-4 0  9997
2 56119  43.0025 222.5117 0001226 273.9378  86.1325 15.02533994 70944
STARLINK-6079           
1 56120U 23046AD  24189.47031414 -.00001830  00000+0 -12042-3 0  9992
2 56120  43.0021 222.2108 0001140 279.2597  80.8117 15.02536695 70419
STARLINK-6092           
1 56121U 23046AE  24189.39940516  .00000360  00000+0  41749-4 0  9998
2 56121  43.0027 222.5378 0001304 275.1010  84.9683 15.02535337 70948
STARLINK-6094           
1 56122U 23046AF  24189.13755260  .00000034  00000+0  17581-4 0  9996
2 56122  43.0027 236.1263 0001304 258.7836 101.2860 15.02536289 70224
STARLINK-6115           
1 56123U 23046AH  24189.45367575  .00000593  00000+0  59000-4 0  9992
2 56123  43.0027 222.0842 0001357 272.4732  87.5955 15.02532835 70413
STARLINK-6126           
1 56124U 23046AJ  24189.40051296  .00001167  00000+0  10149-3 0  9996
2 56124  43.0026 222.5464 0001282 269.7032  90.3663 15.02528135 70402
STARLINK-6119           
1 56125U 23046AK  24189.52347896 -.00000548  00000+0 -25529-4 0  9997
2 56125  43.0014 221.7473 0001217 274.6557  85.4147 15.02534280 70428
STARLINK-6124           
1 56126U 23046AL  24189.38386677 -.00000350  00000+0 -10861-4 0  9996
2 56126  43.0030 222.4193 0001240 276.7189  83.3513 15.02529671 70404
STARLINK-6104           
1 56127U 23046AM  24189.37608933  .00000507  00000+0  52626-4 0  9995
2 56127  43.0017 222.3600 0001050 266.1030  93.9692 15.02538682 70406
STARLINK-6122           
1 56128U 23046AN  24189.45922180 -.00001044  00000+0 -62243-4 0  9993
2 56128  43.0020 222.1247 0001145 261.2643  98.8070 15.02539760 70410
STARLINK-6121           
1 56129U 23046AP  24189.38047050  .00000106  00000+0  22913-4 0  9996
2 56129  43.0030 170.4966 0001207 269.8818  90.1886 15.02532421 71005
STARLINK-6117           
1 56130U 23046AQ  24189.44700835  .00000714  00000+0  67921-4 0  9995
2 56130  43.0027 222.0325 0001107 272.9586  87.1130 15.02539385 70410
STARLINK-6120           
1 56131U 23046AR  24189.36610699  .00001033  00000+0  91554-4 0  9999
2 56131  43.0019 222.2850 0001328 272.6458  87.4232 15.02528263 70405
STARLINK-6071           
1 56132U 23046AS  24189.37720726  .00000095  00000+0  22136-4 0  9991
2 56132  43.0023 222.3680 0001237 263.9124  96.1578 15.02533769 70402
STARLINK-5566           
1 56133U 23046AT  24189.50017394  .00000523  00000+0  53812-4 0  9998
2 56133  43.0024 221.5707 0001311 267.8084  92.2608 15.02533759 70428
STARLINK-5564           
1 56134U 23046AU  24189.37387137  .00000204  00000+0  30152-4 0  9997
2 56134  43.0023 222.3422 0001143 266.2266  93.8446 15.02538242 70406
STARLINK-5489           
1 56136U 23046AW  24189.17000275 -.00000315  00000+0 -82468-5 0  9995
2 56136  43.0018 223.3940 0001224 270.5456  89.5246 15.02531460 70378
STARLINK-5090           
1 56137U 23046AX  24189.41370919  .00000370  00000+0  42490-4 0  9997
2 56137  43.0021 221.7805 0001107 273.8486  86.2230 15.02537817 70418
STARLINK-4774           
1 56138U 23046AY  24189.36277664  .00000067  00000+0  19994-4 0  9991
2 56138  43.0023 222.2581 0001143 267.5290  92.5422 15.02536635 70949
STARLINK-5375           
1 56140U 23046BA  24190.15828767  .00001343  00000+0  11449-3 0  9993
2 56140  43.0038 217.9066 0001513 268.6278  91.4391 15.02538774 71069
STARLINK-5377           
1 56141U 23046BB  24189.47907934 -.00000188  00000+0  11839-5 0  9993
2 56141  43.0020 221.4103 0001045 270.7341  89.3382 15.02536433 70423
STARLINK-5376           
1 56142U 23046BC  24189.42369974  .00000543  00000+0  55256-4 0  9999
2 56142  43.0018 221.8558 0001235 276.1591  83.9110 15.02536899 70411
STARLINK-5016           
1 56143U 23046BD  24189.54001101  .00000471  00000+0  49934-4 0  9994
2 56143  43.0024 221.0071 0001227 263.9195  96.1508 15.02534570 70978
STARLINK-5374           
1 56144U 23046BE  24190.08515076  .00000822  00000+0  75900-4 0  9999
2 56144  43.0038 218.2161 0001242 261.3580  98.7122 15.02536255 71051
STARLINK-5111           
1 56146U 23046BG  24189.54223240  .00000626  00000+0  61431-4 0  9995
2 56146  43.0032 221.0225 0001161 264.7517  95.3192 15.02532633 70973
STARLINK-5140           
1 56147U 23046BH  24190.04940283 -.00000338  00000+0 -99392-5 0  9996
2 56147  43.0021 179.7322 0001271 276.9502  83.1196 15.02528290 71491
STARLINK-5089           
1 56148U 23046BJ  24189.05556765 -.00000198  00000+0  40892-6 0  9999
2 56148  43.0018 185.1786 0001109 274.4206  85.6510 15.02533350 70801
